[
    {
        "Altitude(m)": 557544.6724869143,
        "Argument of Periapsis(deg)": 0.013245982221427002,
        "Eccentricity": 0.0,
        "Inclination(deg)": 53.0,
        "Latitude(deg)": 42.75822440952986,
        "Longitude(deg)": -65.4421535499347,
        "Mean Anomaly(deg)": -237.99861426484486,
        "RAAN(deg)": 259.9802867370561,
        "Satellite Name": "Starlink Shell 1 1150",
        "Satellite Number": 1150,
        "Semi-Major Axis(m)": 6931778.249405717,
        "Time(s)": 380
    },
    {
        "Altitude(m)": 557464.625115738,
        "Argument of Periapsis(deg)": 0.013594560700938237,
        "Eccentricity": 0.0,
        "Inclination(deg)": 53.0,
        "Latitude(deg)": 42.39439387022308,
        "Longitude(deg)": -64.79100565399251,
        "Mean Anomaly(deg)": -237.3717830612881,
        "RAAN(deg)": 259.9797679669786,
        "Satellite Name": "Starlink Shell 1 1150",
        "Satellite Number": 1150,
        "Semi-Major Axis(m)": 6931778.249405717,
        "Time(s)": 390
    },
    {
        "Altitude(m)": 557384.011014386,
        "Argument of Periapsis(deg)": 0.013943139180449475,
        "Eccentricity": 0.0,
        "Inclination(deg)": 53.0,
        "Latitude(deg)": 42.02640631432172,
        "Longitude(deg)": -64.14784829177401,
        "Mean Anomaly(deg)": -236.74495185773142,
        "RAAN(deg)": 259.9792491969011,
        "Satellite Name": "Starlink Shell 1 1150",
        "Satellite Number": 1150,
        "Semi-Major Axis(m)": 6931778.249405717,
        "Time(s)": 400
    },
    {
        "Altitude(m)": 557302.8815873391,
        "Argument of Periapsis(deg)": 0.014291717659960712,
        "Eccentricity": 0.0,
        "Inclination(deg)": 53.0,
        "Latitude(deg)": 41.65436084578752,
        "Longitude(deg)": -63.51257487128669,
        "Mean Anomaly(deg)": -236.11812065417467,
        "RAAN(deg)": 259.97873042682363,
        "Satellite Name": "Starlink Shell 1 1150",
        "Satellite Number": 1150,
        "Semi-Major Axis(m)": 6931778.249405717,
        "Time(s)": 410
    },
    {
        "Altitude(m)": 557221.2887104051,
        "Argument of Periapsis(deg)": 0.014640296139471948,
        "Eccentricity": 0.0,
        "Inclination(deg)": 53.0,
        "Latitude(deg)": 41.278354713783756,
        "Longitude(deg)": -62.885076658925094,
        "Mean Anomaly(deg)": -235.491289450618,
        "RAAN(deg)": 259.97821165674617,
        "Satellite Name": "Starlink Shell 1 1150",
        "Satellite Number": 1150,
        "Semi-Major Axis(m)": 6931778.249405717,
        "Time(s)": 420
    },
    {
        "Altitude(m)": 557139.2847045497,
        "Argument of Periapsis(deg)": 0.014988874618983185,
        "Eccentricity": 0.0,
        "Inclination(deg)": 53.0,
        "Latitude(deg)": 40.89848330700254,
        "Longitude(deg)": -62.26524259858154,
        "Mean Anomaly(deg)": -234.86445824706124,
        "RAAN(deg)": 259.9776928866687,
        "Satellite Name": "Starlink Shell 1 1150",
        "Satellite Number": 1150,
        "Semi-Major Axis(m)": 6931778.249405717,
        "Time(s)": 430
    },
    {
        "Altitude(m)": 557056.9223094655,
        "Argument of Periapsis(deg)": 0.015337453098494424,
        "Eccentricity": 0.0,
        "Inclination(deg)": 53.0,
        "Latitude(deg)": 40.51484015242177,
        "Longitude(deg)": -61.652959112639195,
        "Mean Anomaly(deg)": -234.2376270435045,
        "RAAN(deg)": 259.97717411659124,
        "Satellite Name": "Starlink Shell 1 1150",
        "Satellite Number": 1150,
        "Semi-Major Axis(m)": 6931778.249405717,
        "Time(s)": 440
    },
    {
        "Altitude(m)": 556974.2546569048,
        "Argument of Periapsis(deg)": 0.01568603157800566,
        "Eccentricity": 0.0,
        "Inclination(deg)": 53.0,
        "Latitude(deg)": 40.12751691813362,
        "Longitude(deg)": -61.04811139807095,
        "Mean Anomaly(deg)": -233.61079583994783,
        "RAAN(deg)": 259.9766553465137,
        "Satellite Name": "Starlink Shell 1 1150",
        "Satellite Number": 1150,
        "Semi-Major Axis(m)": 6931778.249405717,
        "Time(s)": 450
    },
    {
        "Altitude(m)": 556891.3352438015,
        "Argument of Periapsis(deg)": 0.0160346100575169,
        "Eccentricity": 0.0,
        "Inclination(deg)": 53.0,
        "Latitude(deg)": 39.73660341990622,
        "Longitude(deg)": -60.450583192323215,
        "Mean Anomaly(deg)": -232.9839646363911,
        "RAAN(deg)": 259.97613657643626,
        "Satellite Name": "Starlink Shell 1 1150",
        "Satellite Number": 1150,
        "Semi-Major Axis(m)": 6931778.249405717,
        "Time(s)": 460
    },
    {
        "Altitude(m)": 556808.2179051072,
        "Argument of Periapsis(deg)": 0.016383188537028134,
        "Eccentricity": 0.0,
        "Inclination(deg)": 53.0,
        "Latitude(deg)": 39.342187631152846,
        "Longitude(deg)": -59.86025652232739,
        "Mean Anomaly(deg)": -232.35713343283444,
        "RAAN(deg)": 259.9756178063588,
        "Satellite Name": "Starlink Shell 1 1150",
        "Satellite Number": 1150,
        "Semi-Major Axis(m)": 6931778.249405717,
        "Time(s)": 470
    },
    {
        "Altitude(m)": 556724.9567864944,
        "Argument of Periapsis(deg)": 0.01673176701653937,
        "Eccentricity": 0.0,
        "Inclination(deg)": 53.0,
        "Latitude(deg)": 38.94435569599684,
        "Longitude(deg)": -59.27701295002309,
        "Mean Anomaly(deg)": -231.73030222927764,
        "RAAN(deg)": 259.97509903628134,
        "Satellite Name": "Starlink Shell 1 1150",
        "Satellite Number": 1150,
        "Semi-Major Axis(m)": 6931778.249405717,
        "Time(s)": 480
    },
    {
        "Altitude(m)": 556641.6063168149,
        "Argument of Periapsis(deg)": 0.017080345496050607,
        "Eccentricity": 0.0,
        "Inclination(deg)": 53.0,
        "Latitude(deg)": 38.54319194514333,
        "Longitude(deg)": -58.70073328920134,
        "Mean Anomaly(deg)": -231.10347102572095,
        "RAAN(deg)": 259.9745802662038,
        "Satellite Name": "Starlink Shell 1 1150",
        "Satellite Number": 1150,
        "Semi-Major Axis(m)": 6931778.249405717,
        "Time(s)": 490
    },
    {
        "Altitude(m)": 556558.221180395,
        "Argument of Periapsis(deg)": 0.017428923975561842,
        "Eccentricity": 0.0,
        "Inclination(deg)": 53.0,
        "Latitude(deg)": 38.13877891427745,
        "Longitude(deg)": -58.13129730711164,
        "Mean Anomaly(deg)": -230.47663982216426,
        "RAAN(deg)": 259.97406149612635,
        "Satellite Name": "Starlink Shell 1 1150",
        "Satellite Number": 1150,
        "Semi-Major Axis(m)": 6931778.249405717,
        "Time(s)": 500
    },
    {
        "Altitude(m)": 556474.856289165,
        "Argument of Periapsis(deg)": 0.01777750245507308,
        "Eccentricity": 0.0,
        "Inclination(deg)": 53.0,
        "Latitude(deg)": 37.73119736472868,
        "Longitude(deg)": -57.56858492429979,
        "Mean Anomaly(deg)": -229.8498086186075,
        "RAAN(deg)": 259.97354272604895,
        "Satellite Name": "Starlink Shell 1 1150",
        "Satellite Number": 1150,
        "Semi-Major Axis(m)": 6931778.249405717,
        "Time(s)": 510
    },
    {
        "Altitude(m)": 556391.5667546019,
        "Argument of Periapsis(deg)": 0.018126080934584315,
        "Eccentricity": 0.0,
        "Inclination(deg)": 53.0,
        "Latitude(deg)": 37.32052630615664,
        "Longitude(deg)": -57.01247588753845,
        "Mean Anomaly(deg)": -229.22297741505082,
        "RAAN(deg)": 259.9730239559714,
        "Satellite Name": "Starlink Shell 1 1150",
        "Satellite Number": 1150,
        "Semi-Major Axis(m)": 6931778.249405717,
        "Time(s)": 520
    },
    {
        "Altitude(m)": 556308.4078595868,
        "Argument of Periapsis(deg)": 0.018474659414095554,
        "Eccentricity": 0.0,
        "Inclination(deg)": 53.0,
        "Latitude(deg)": 36.90684302102886,
        "Longitude(deg)": -56.46284942933781,
        "Mean Anomaly(deg)": -228.5961462114941,
        "RAAN(deg)": 259.97250518589397,
        "Satellite Name": "Starlink Shell 1 1150",
        "Satellite Number": 1150,
        "Semi-Major Axis(m)": 6931778.249405717,
        "Time(s)": 530
    },
    {
        "Altitude(m)": 556225.4350300704,
        "Argument of Periapsis(deg)": 0.018823237893606792,
        "Eccentricity": 0.0,
        "Inclination(deg)": 53.0,
        "Latitude(deg)": 36.49022309067268,
        "Longitude(deg)": -55.91958542752209,
        "Mean Anomaly(deg)": -227.9693150079374,
        "RAAN(deg)": 259.97198641581645,
        "Satellite Name": "Starlink Shell 1 1150",
        "Satellite Number": 1150,
        "Semi-Major Axis(m)": 6931778.249405717,
        "Time(s)": 540
    },
    {
        "Altitude(m)": 556142.703806673,
        "Argument of Periapsis(deg)": 0.019171816373118027,
        "Eccentricity": 0.0,
        "Inclination(deg)": 53.0,
        "Latitude(deg)": 36.070740422704354,
        "Longitude(deg)": -55.38256403974303,
        "Mean Anomaly(deg)": -227.34248380438066,
        "RAAN(deg)": 259.971467645739,
        "Satellite Name": "Starlink Shell 1 1150",
        "Satellite Number": 1150,
        "Semi-Major Axis(m)": 6931778.249405717,
        "Time(s)": 550
    },
    {
        "Altitude(m)": 556060.2698161409,
        "Argument of Periapsis(deg)": 0.019520394852629266,
        "Eccentricity": 0.0,
        "Inclination(deg)": 53.0,
        "Latitude(deg)": 35.64846727964781,
        "Longitude(deg)": -54.851665326411926,
        "Mean Anomaly(deg)": -226.71565260082394,
        "RAAN(deg)": 259.9709488756616,
        "Satellite Name": "Starlink Shell 1 1150",
        "Satellite Number": 1150,
        "Semi-Major Axis(m)": 6931778.249405717,
        "Time(s)": 560
    }
]